[{"OBJECT_NAME":"SDA_1666","OBJECT_ID":"2025-230C","EPOCH":"2026-03-09T17:51:27.338688","MEAN_MOTION":13.84647296,"ECCENTRICITY":0.0003465,"INCLINATION":81.2989,"RA_OF_ASC_NODE":303.9667,"ARG_OF_PERICENTER":65.2914,"MEAN_ANOMALY":294.8603,"EPHEMERIS_TYPE":0,"CLASSIFICATION_TYPE":"U","NORAD_CAT_ID":65976,"ELEMENT_SET_NO":999,"REV_AT_EPOCH":2004,"BSTAR":0.00027119407,"MEAN_MOTION_DOT":3.16e-6,"MEAN_MOTION_DDOT":0},{"OBJECT_NAME":"SL-16 DEB","OBJECT_ID":"1987-041D","EPOCH":"2026-03-09T22:31:48.692928","MEAN_MOTION":13.76458109,"ECCENTRICITY":0.01884926,"INCLINATION":71.0288,"RA_OF_ASC_NODE":268.3648,"ARG_OF_PERICENTER":352.2617,"MEAN_ANOMALY":114.5691,"EPHEMERIS_TYPE":0,"CLASSIFICATION_TYPE":"U","NORAD_CAT_ID":18411,"ELEMENT_SET_NO":999,"REV_AT_EPOCH":94858,"BSTAR":0.00013918521,"MEAN_MOTION_DOT":1.12e-6,"MEAN_MOTION_DDOT":0}]
